{
  "type": "FeatureCollection",
  "features": [
    {
      "type": "Feature",
      "properties": {
        "norad_id": 34022,
        "name": "COSMOS 2251 DEB",
        "group": "cosmos-2251-debris",
        "lat": -74.04397492304089,
        "lon": -162.54410898716927,
        "alt_km": 767.3210167999105,
        "timestamp": "2025-12-03T15:48:03.459885+00:00",
        "meta_object_name": "COSMOS 2251 DEB",
        "meta_object_id": "1993-036HH",
        "meta_epoch": "2025-12-02T22:07:25.071744",
        "meta_mean_motion": 14.38936714,
        "meta_eccentricity": 0.00223423,
        "meta_inclination": 74.0538,
        "meta_ra_of_asc_node": 288.8851,
        "meta_arg_of_pericenter": 355.7024,
        "meta_mean_anomaly": 60.5869,
        "meta_ephemeris_type": 0,
        "meta_classification_type": "U",
        "meta_norad_cat_id": 34022,
        "meta_element_set_no": 999,
        "meta_rev_at_epoch": 88054,
        "meta_bstar": 0.00034551866,
        "meta_mean_motion_dot": 1.042e-05,
        "meta_mean_motion_ddot": 0,
        "tle_line1": "1 34022U 93036HH  25336.92181796  .00001042  00000+0  34552-3 0  9992",
        "tle_line2": "2 34022  74.0538 288.8851 0022342 355.7024  60.5869 14.38936714880544"
      },
      "geometry": {
        "type": "Point",
        "coordinates": [
          -162.54410898716927,
          -74.04397492304089
        ]
      }
    },
    {
      "type": "Feature",
      "properties": {
        "norad_id": 34023,
        "name": "COSMOS 2251 DEB",
        "group": "cosmos-2251-debris",
        "lat": 40.2191477926618,
        "lon": 74.52981192031626,
        "alt_km": 761.8655106145698,
        "timestamp": "2025-12-03T15:48:03.459894+00:00",
        "meta_object_name": "COSMOS 2251 DEB",
        "meta_object_id": "1993-036HJ",
        "meta_epoch": "2025-12-03T05:51:38.172384",
        "meta_mean_motion": 14.40524866,
        "meta_eccentricity": 0.00180493,
        "meta_inclination": 74.0248,
        "meta_ra_of_asc_node": 269.315,
        "meta_arg_of_pericenter": 6.5951,
        "meta_mean_anomaly": 143.9398,
        "meta_ephemeris_type": 0,
        "meta_classification_type": "U",
        "meta_norad_cat_id": 34023,
        "meta_element_set_no": 999,
        "meta_rev_at_epoch": 88077,
        "meta_bstar": 0.00054994731,
        "meta_mean_motion_dot": 1.728e-05,
        "meta_mean_motion_ddot": 0,
        "tle_line1": "1 34023U 93036HJ  25337.24419181  .00001728  00000+0  54995-3 0  9995",
        "tle_line2": "2 34023  74.0248 269.3150 0018049   6.5951 143.9398 14.40524866880770"
      },
      "geometry": {
        "type": "Point",
        "coordinates": [
          74.52981192031626,
          40.2191477926618
        ]
      }
    },
    {
      "type": "Feature",
      "properties": {
        "norad_id": 34024,
        "name": "COSMOS 2251 DEB",
        "group": "cosmos-2251-debris",
        "lat": -42.64067060735976,
        "lon": -42.63364676749406,
        "alt_km": 775.1302993240615,
        "timestamp": "2025-12-03T15:48:03.459903+00:00",
        "meta_object_name": "COSMOS 2251 DEB",
        "meta_object_id": "1993-036HK",
        "meta_epoch": "2025-12-03T08:12:08.521920",
        "meta_mean_motion": 14.35378725,
        "meta_eccentricity": 0.0020601,
        "meta_inclination": 74.0462,
        "meta_ra_of_asc_node": 333.2194,
        "meta_arg_of_pericenter": 26.4522,
        "meta_mean_anomaly": 93.6918,
        "meta_ephemeris_type": 0,
        "meta_classification_type": "U",
        "meta_norad_cat_id": 34024,
        "meta_element_set_no": 999,
        "meta_rev_at_epoch": 87889,
        "meta_bstar": 0.0002911115,
        "meta_mean_motion_dot": 8.11e-06,
        "meta_mean_motion_ddot": 0,
        "tle_line1": "1 34024U 93036HK  25337.34176530  .00000811  00000+0  29111-3 0  9999",
        "tle_line2": "2 34024  74.0462 333.2194 0020601  26.4522  93.6918 14.35378725878894"
      },
      "geometry": {
        "type": "Point",
        "coordinates": [
          -42.63364676749406,
          -42.64067060735976
        ]
      }
    },
    {
      "type": "Feature",
      "properties": {
        "norad_id": 34026,
        "name": "COSMOS 2251 DEB",
        "group": "cosmos-2251-debris",
        "lat": -24.09082389625417,
        "lon": -15.096456576182298,
        "alt_km": 1107.668273662317,
        "timestamp": "2025-12-03T15:48:03.459912+00:00",
        "meta_object_name": "COSMOS 2251 DEB",
        "meta_object_id": "1993-036HM",
        "meta_epoch": "2025-12-03T03:58:35.188320",
        "meta_mean_motion": 13.65277162,
        "meta_eccentricity": 0.03512428,
        "meta_inclination": 73.7672,
        "meta_ra_of_asc_node": 353.207,
        "meta_arg_of_pericenter": 224.6097,
        "meta_mean_anomaly": 205.8785,
        "meta_ephemeris_type": 0,
        "meta_classification_type": "U",
        "meta_norad_cat_id": 34026,
        "meta_element_set_no": 999,
        "meta_rev_at_epoch": 83401,
        "meta_bstar": 0.0012180782,
        "meta_mean_motion_dot": 1.484e-05,
        "meta_mean_motion_ddot": 0,
        "tle_line1": "1 34026U 93036HM  25337.16568505  .00001484  00000+0  12181-2 0  9993",
        "tle_line2": "2 34026  73.7672 353.2070 0351242 224.6097 205.8785 13.65277162834017"
      },
      "geometry": {
        "type": "Point",
        "coordinates": [
          -15.096456576182298,
          -24.09082389625417
        ]
      }
    },
    {
      "type": "Feature",
      "properties": {
        "norad_id": 34028,
        "name": "COSMOS 2251 DEB",
        "group": "cosmos-2251-debris",
        "lat": 2.3321128309110155,
        "lon": 1.8485155578739616,
        "alt_km": 1480.0534852125393,
        "timestamp": "2025-12-03T15:48:03.459923+00:00",
        "meta_object_name": "COSMOS 2251 DEB",
        "meta_object_id": "1993-036HP",
        "meta_epoch": "2025-12-03T08:37:58.968192",
        "meta_mean_motion": 13.2061547,
        "meta_eccentricity": 0.05441161,
        "meta_inclination": 73.8837,
        "meta_ra_of_asc_node": 1.6316,
        "meta_arg_of_pericenter": 141.0801,
        "meta_mean_anomaly": 246.3518,
        "meta_ephemeris_type": 0,
        "meta_classification_type": "U",
        "meta_norad_cat_id": 34028,
        "meta_element_set_no": 999,
        "meta_rev_at_epoch": 80884,
        "meta_bstar": 0.00027579231,
        "meta_mean_motion_dot": 2.26e-06,
        "meta_mean_motion_ddot": 0,
        "tle_line1": "1 34028U 93036HP  25337.35971028  .00000226  00000+0  27579-3 0  9995",
        "tle_line2": "2 34028  73.8837   1.6316 0544116 141.0801 246.3518 13.20615470808844"
      },
      "geometry": {
        "type": "Point",
        "coordinates": [
          1.8485155578739616,
          2.3321128309110155
        ]
      }
    },
    {
      "type": "Feature",
      "properties": {
        "norad_id": 34031,
        "name": "COSMOS 2251 DEB",
        "group": "cosmos-2251-debris",
        "lat": 65.82579836694582,
        "lon": -167.25229193491782,
        "alt_km": 703.0342844395445,
        "timestamp": "2025-12-03T15:48:03.459932+00:00",
        "meta_object_name": "COSMOS 2251 DEB",
        "meta_object_id": "1993-036HS",
        "meta_epoch": "2025-12-03T07:33:06.922080",
        "meta_mean_motion": 14.59500414,
        "meta_eccentricity": 0.00229264,
        "meta_inclination": 74.0116,
        "meta_ra_of_asc_node": 153.7058,
        "meta_arg_of_pericenter": 274.3433,
        "meta_mean_anomaly": 152.0417,
        "meta_ephemeris_type": 0,
        "meta_classification_type": "U",
        "meta_norad_cat_id": 34031,
        "meta_element_set_no": 999,
        "meta_rev_at_epoch": 88428,
        "meta_bstar": 0.0016554644,
        "meta_mean_motion_dot": 7.866e-05,
        "meta_mean_motion_ddot": 0,
        "tle_line1": "1 34031U 93036HS  25337.31466345  .00007866  00000+0  16555-2 0  9994",
        "tle_line2": "2 34031  74.0116 153.7058 0022926 274.3433 152.0417 14.59500414884281"
      },
      "geometry": {
        "type": "Point",
        "coordinates": [
          -167.25229193491782,
          65.82579836694582
        ]
      }
    },
    {
      "type": "Feature",
      "properties": {
        "norad_id": 34035,
        "name": "COSMOS 2251 DEB",
        "group": "cosmos-2251-debris",
        "lat": 49.03117838718023,
        "lon": 167.00759036192838,
        "alt_km": 729.8264203296576,
        "timestamp": "2025-12-03T15:48:03.459942+00:00",
        "meta_object_name": "COSMOS 2251 DEB",
        "meta_object_id": "1993-036HW",
        "meta_epoch": "2025-12-03T02:07:31.551168",
        "meta_mean_motion": 14.51748955,
        "meta_eccentricity": 0.00440833,
        "meta_inclination": 74.066,
        "meta_ra_of_asc_node": 7.2867,
        "meta_arg_of_pericenter": 11.1757,
        "meta_mean_anomaly": 19.7596,
        "meta_ephemeris_type": 0,
        "meta_classification_type": "U",
        "meta_norad_cat_id": 34035,
        "meta_element_set_no": 999,
        "meta_rev_at_epoch": 87826,
        "meta_bstar": 0.0018987331,
        "meta_mean_motion_dot": 7.707e-05,
        "meta_mean_motion_ddot": 0,
        "tle_line1": "1 34035U 93036HW  25337.08855962  .00007707  00000+0  18987-2 0  9994",
        "tle_line2": "2 34035  74.0660   7.2867 0044083  11.1757  19.7596 14.51748955878268"
      },
      "geometry": {
        "type": "Point",
        "coordinates": [
          167.00759036192838,
          49.03117838718023
        ]
      }
    }
  ]
}